NORAD_CAT_ID,OBJECT_NAME,OBJECT_TYPE,EPOCH,MEAN_MOTION,ECCENTRICITY,INCLINATION,RA_OF_ASC_NODE,ARG_OF_PERICENTER,MEAN_ANOMALY,BSTAR,MEAN_MOTION_DOT,MEAN_MOTION_DDOT,TLE_LINE0,TLE_LINE1,TLE_LINE2,SEMIMAJOR_AXIS,PERIOD,APOGEE,PERIGEE,DECAYED
50176.0,STARLINK-3293,PAYLOAD,2024-07-14 08:57:44,15.08843921,0.0001383,53.2169,77.517,97.6585,262.4564,2.4135e-05,9.6e-07,0.0,0 STARLINK-3293,1 50176U 21125W   24196.37343122  .00000096  00000-0  24135-4 0  9991,2 50176  53.2169  77.5170 0001383  97.6585 262.4564 15.08843921145560,6917.868,95.437,540.69,538.777,0.0
50176.0,STARLINK-3293,PAYLOAD,2024-07-14 21:40:49,15.08841871,0.0001455,53.217,75.1384,101.3165,258.799,0.00015241,2.139e-05,0.0,0 STARLINK-3293,1 50176U 21125W   24196.90335428  .00002139  00000-0  15241-3 0  9997,2 50176  53.2170  75.1384 0001455 101.3165 258.7990 15.08841871142515,6917.875,95.437,540.746,538.733,0.0
50176.0,STARLINK-3293,PAYLOAD,2024-07-15 15:10:04,15.08836893,0.00015,53.2179,71.8679,91.8489,268.2675,0.0001507,2.111e-05,0.0,0 STARLINK-3293,1 50176U 21125W   24197.63199859  .00002111  00000-0  15070-3 0  9994,2 50176  53.2179  71.8679 0001500  91.8489 268.2675 15.08836893145750,6917.89,95.438,540.793,538.717,0.0
50176.0,STARLINK-3293,PAYLOAD,2024-07-15 21:31:37,15.08836316,0.0001593,53.217,70.6762,89.1472,270.9703,5.1906e-05,5.38e-06,0.0,0 STARLINK-3293,1 50176U 21125W   24197.89696012  .00000538  00000-0  51906-4 0  9995,2 50176  53.2170  70.6762 0001593  89.1472 270.9703 15.08836316142664,6917.892,95.438,540.859,538.655,0.0
50176.0,STARLINK-3293,PAYLOAD,2024-07-15 23:07:00,15.08839354,0.0001493,53.217,70.3798,89.9668,270.1495,0.00010241,1.342e-05,0.0,0 STARLINK-3293,1 50176U 21125W   24197.96319857  .00001342  00000-0  10241-3 0  9992,2 50176  53.2170  70.3798 0001493  89.9668 270.1495 15.08839354145808,6917.882,95.438,540.78,538.715,0.0
50176.0,STARLINK-3293,PAYLOAD,2024-07-16 21:22:24,15.08844962,0.000165,53.2177,66.2155,71.3708,288.7463,0.00015336,2.154e-05,0.0,0 STARLINK-3293,1 50176U 21125W   24198.89055762  .00002154  00000-0  15336-3 0  9999,2 50176  53.2177  66.2155 0001650  71.3708 288.7463 15.08844962145947,6917.865,95.437,540.872,538.589,0.0
50176.0,STARLINK-3293,PAYLOAD,2024-07-17 00:33:10,15.08855087,0.0001685,53.2182,65.6148,68.7745,291.3427,0.00036079,5.461e-05,0.0,0 STARLINK-3293,1 50176U 21125W   24199.02303337  .00005461  00000-0  36079-3 0  9990,2 50176  53.2182  65.6148 0001685  68.7745 291.3427 15.08855087142832,6917.834,95.437,540.865,538.534,0.0
50176.0,STARLINK-3293,PAYLOAD,2024-07-17 08:30:05,15.08840819,0.0001188,53.2171,64.1275,114.0162,246.0954,6.4708e-05,7.42e-06,0.0,0 STARLINK-3293,1 50176U 21125W   24199.35423535  .00000742  00000-0  64708-4 0  9997,2 50176  53.2171  64.1275 0001188 114.0162 246.0954 15.08840819142885,6917.878,95.438,540.565,538.921,0.0
50176.0,STARLINK-3293,PAYLOAD,2024-07-17 21:13:11,15.088418,0.0001505,53.2169,61.7506,113.8749,246.2401,7.5259e-05,9.1e-06,0.0,0 STARLINK-3293,1 50176U 21125W   24199.88415795  .00000910  00000-0  75259-4 0  9994,2 50176  53.2169  61.7506 0001505 113.8749 246.2401 15.08841800146090,6917.875,95.437,540.781,538.699,0.0
50176.0,STARLINK-3293,PAYLOAD,2024-07-18 08:20:53,15.08840975,0.0001578,53.218,59.6707,96.9184,263.1988,0.00012802,1.75e-05,0.0,0 STARLINK-3293,1 50176U 21125W   24200.34784057  .00001750  00000-0  12802-3 0  9995,2 50176  53.2180  59.6707 0001578  96.9184 263.1988 15.08840975146164,6917.877,95.437,540.834,538.651,0.0
50176.0,STARLINK-3293,PAYLOAD,2024-07-18 21:03:58,15.08844062,0.0001652,53.2179,57.291,116.1603,243.9559,0.00010005,1.305e-05,0.0,0 STARLINK-3293,1 50176U 21125W   24200.87775904  .00001305  00000-0  10005-3 0  9993,2 50176  53.2179  57.2910 0001652 116.1603 243.9559 15.08844062146246,6917.868,95.437,540.876,538.59,0.0
50176.0,STARLINK-3293,PAYLOAD,2024-07-19 00:14:44,15.08850255,0.0001586,53.2181,56.6954,108.2957,251.8208,0.00010112,1.322e-05,0.0,0 STARLINK-3293,1 50176U 21125W   24201.01023616  .00001322  00000-0  10112-3 0  9994,2 50176  53.2181  56.6954 0001586 108.2957 251.8208 15.08850255146262,6917.849,95.437,540.811,538.617,0.0
50176.0,STARLINK-3293,PAYLOAD,2024-07-19 20:54:45,15.08844721,0.0001353,53.2173,52.8267,106.5415,253.5726,0.00010981,1.46e-05,0.0,0 STARLINK-3293,1 50176U 21125W   24201.87135864  .00001460  00000-0  10981-3 0  9994,2 50176  53.2173  52.8267 0001353 106.5415 253.5726 15.08844721146399,6917.866,95.437,540.667,538.795,0.0
50176.0,STARLINK-3293,PAYLOAD,2024-07-20 20:45:32,15.08839429,0.000138,53.2174,48.3687,100.399,259.7158,4.5132e-05,4.3e-06,0.0,0 STARLINK-3293,1 50176U 21125W   24202.86496389  .00000430  00000-0  45132-4 0  9999,2 50176  53.2174  48.3687 0001380 100.3990 259.7158 15.08839429143412,6917.882,95.438,540.702,538.792,0.0
50176.0,STARLINK-3293,PAYLOAD,2024-07-21 06:17:51,15.08838181,0.0001278,53.2169,46.5845,86.0514,274.0624,5.2341e-05,5.45e-06,0.0,0 STARLINK-3293,1 50176U 21125W   24203.26240571  .00000545  00000-0  52341-4 0  9991,2 50176  53.2169  46.5845 0001278  86.0514 274.0624 15.08838181146606,6917.886,95.438,540.635,538.867,0.0
50176.0,STARLINK-3293,PAYLOAD,2024-07-21 19:00:57,15.08836277,0.000125,53.2168,44.2071,85.486,274.6275,-2.7352e-05,-7.23e-06,0.0,0 STARLINK-3293,1 50176U 21125W   24203.79232888 -.00000723  00000-0 -27352-4 0  9995,2 50176  53.2168  44.2071 0001250  85.4860 274.6275 15.08836277146688,6917.892,95.438,540.622,538.892,0.0
50176.0,STARLINK-3293,PAYLOAD,2024-07-22 22:02:29,15.0885848,0.0001369,53.2183,39.1517,94.2428,265.8721,0.00031301,4.7e-05,0.0,0 STARLINK-3293,1 50176U 21125W   24204.91839401  .00004700  00000-0  31301-3 0  9999,2 50176  53.2183  39.1517 0001369  94.2428 265.8721 15.08858480146859,6917.824,95.436,540.636,538.742,0.0
50176.0,STARLINK-3293,PAYLOAD,2024-07-23 21:53:17,15.08831975,0.0001427,53.2173,34.6934,78.6727,281.4425,-0.00020899,-3.612e-05,0.0,0 STARLINK-3293,1 50176U 21125W   24205.91200821 -.00003612  00000-0 -20899-3 0  9991,2 50176  53.2173  34.6934 0001427  78.6727 281.4425 15.08831975147007,6917.905,95.438,540.757,538.783,0.0
50176.0,STARLINK-3293,PAYLOAD,2024-07-24 21:44:04,15.08838688,0.0001711,53.2181,30.2314,78.2549,281.8635,4.5556e-05,4.37e-06,0.0,0 STARLINK-3293,1 50176U 21125W   24206.90561173  .00000437  00000-0  45556-4 0  9999,2 50176  53.2181  30.2314 0001711  78.2549 281.8635 15.08838688147155,6917.884,95.438,540.933,538.566,0.0
50176.0,STARLINK-3293,PAYLOAD,2024-07-25 21:34:52,15.08840928,0.0002078,53.2172,25.7701,76.545,283.5773,0.00011037,1.469e-05,0.0,0 STARLINK-3293,1 50176U 21125W   24207.89921397  .00001469  00000-0  11037-3 0  9998,2 50176  53.2172  25.7701 0002078  76.5450 283.5773 15.08840928147302,6917.878,95.437,541.18,538.305,0.0
50176.0,STARLINK-3293,PAYLOAD,2024-07-26 05:31:47,15.08842453,0.0001401,53.2142,24.2886,75.7409,284.3739,0.00021277,3.1e-05,0.0,0 STARLINK-3293,1 50176U 21125W   24208.23041175  .00003100  00000-0  21277-3 0  9995,2 50176  53.2142  24.2886 0001401  75.7409 284.3739 15.08842453144225,6917.873,95.437,540.707,538.769,0.0
50176.0,STARLINK-3293,PAYLOAD,2024-07-26 21:25:38,15.08852512,0.000137,53.2157,21.3123,85.4617,274.6532,0.00025003,3.695e-05,0.0,0 STARLINK-3293,1 50176U 21125W   24208.89280425  .00003695  00000-0  25003-3 0  9990,2 50176  53.2157  21.3123 0001370  85.4617 274.6532 15.08852512147455,6917.842,95.437,540.655,538.759,0.0
50176.0,STARLINK-3293,PAYLOAD,2024-07-27 11:44:07,15.0883986,0.0002003,53.2152,18.6311,99.8457,260.2761,3.7178e-05,3.04e-06,0.0,0 STARLINK-3293,1 50176U 21125W   24209.48897096  .00000304  00000-0  37178-4 0  9995,2 50176  53.2152  18.6311 0002003  99.8457 260.2761 15.08839860144412,6917.881,95.438,541.131,538.36,0.0
50176.0,STARLINK-3293,PAYLOAD,2024-07-27 21:16:26,15.08836109,0.0001466,53.2161,16.8525,90.4748,269.6412,-3.7004e-05,-8.77e-06,0.0,0 STARLINK-3293,1 50176U 21125W   24209.88641374 -.00000877  00000-0 -37004-4 0  9990,2 50176  53.2161  16.8525 0001466  90.4748 269.6412 15.08836109147604,6917.892,95.438,540.771,538.743,0.0
50176.0,STARLINK-3293,PAYLOAD,2024-07-28 19:31:49,15.08852218,0.0001527,53.2183,12.6878,95.2123,264.9044,0.00025338,3.748e-05,0.0,0 STARLINK-3293,1 50176U 21125W   24210.81376728  .00003748  00000-0  25338-3 0  9997,2 50176  53.2183  12.6878 0001527  95.2123 264.9044 15.08852218144617,6917.843,95.437,540.764,538.652,0.0
50176.0,STARLINK-3293,PAYLOAD,2024-07-29 03:28:45,15.08850287,0.0002042,53.2181,11.2002,70.9168,289.2045,0.00026796,3.98e-05,0.0,0 STARLINK-3293,1 50176U 21125W   24211.14496851  .00003980  00000-0  26796-3 0  9991,2 50176  53.2181  11.2002 0002042  70.9168 289.2045 15.08850287144661,6917.849,95.437,541.127,538.301,0.0
50176.0,STARLINK-3293,PAYLOAD,2024-07-29 19:22:36,15.08841558,0.0001625,53.2185,8.2292,78.0632,282.0542,7.8961e-05,9.69e-06,0.0,0 STARLINK-3293,1 50176U 21125W   24211.80737087  .00000969  00000-0  78961-4 0  9999,2 50176  53.2185   8.2292 0001625  78.0632 282.0542 15.08841558144768,6917.876,95.437,540.865,538.616,0.0
50176.0,STARLINK-3293,PAYLOAD,2024-07-30 03:19:32,15.08833831,0.0001436,53.2183,6.7424,81.9877,278.1278,-5.4649e-06,-3.75e-06,0.0,0 STARLINK-3293,1 50176U 21125W   24212.13857533 -.00000375  00000-0 -54649-5 0  9996,2 50176  53.2183   6.7424 0001436  81.9877 278.1278 15.08833831144813,6917.899,95.438,540.758,538.771,0.0
50176.0,STARLINK-3293,PAYLOAD,2024-07-30 20:48:47,15.08843548,0.0001597,53.2173,3.4696,73.5568,286.5599,4.8154e-05,4.78e-06,0.0,0 STARLINK-3293,1 50176U 21125W   24212.86721206  .00000478  00000-0  48154-4 0  9998,2 50176  53.2173   3.4696 0001597  73.5568 286.5599 15.08843548144926,6917.87,95.437,540.839,538.63,0.0
50176.0,STARLINK-3293,PAYLOAD,2024-07-31 14:18:01,15.08839239,0.000132,53.2172,0.1975,78.9527,281.1613,0.00011044,1.47e-05,0.0,0 STARLINK-3293,1 50176U 21125W   24213.59585484  .00001470  00000-0  11044-3 0  9995,2 50176  53.2172   0.1975 0001320  78.9527 281.1613 15.08839239148167,6917.883,95.438,540.661,538.835,0.0
